EUTELSAT HOTBIRD 13C    
1 33459U 08065A   26200.25392818 -.00000289  00000+0  00000+0 0  9999
2 33459   3.0309  78.8115 0003539  40.2316 219.0842  1.00269656 47661
EXPRESS-AM44            
1 33595U 09007A   26200.26172822 -.00000096  00000+0  00000+0 0  9995
2 33595   3.5443  78.0047 0003652  32.0989 270.1383  1.00271226 52607
NSS-9                   
1 33749U 09008A   26200.28675262  .00000066  00000+0  00000+0 0  9991
2 33749   1.3429  82.3431 0002025  23.9676 117.0736  1.00273814 63842
TELSTAR 11N             
1 34111U 09009A   26200.25644153 -.00000256  00000+0  00000+0 0  9990
2 34111   0.0119  11.7328 0002352  97.0691 243.0064  1.00272237 46563
WGS F2 (USA 204)        
1 34713U 09017A   26200.20398045  .00000063  00000+0  00000+0 0  9993
2 34713   0.0165  59.4592 0000233  98.7500 269.7092  1.00272453 45933
SES-7 (PROTOSTAR 2)     
1 34941U 09027A   26200.28521499 -.00000350  00000+0  00000+0 0  9996
2 34941   0.0181  60.5280 0000283 157.9431 289.5118  1.00270091 62953
MEASAT-3A               
1 35362U 09032A   26200.22434720 -.00000116  00000+0  00000+0 0  9994
2 35362   0.0252 346.2417 0002812 121.4398  70.0888  1.00272236  8358
EWS-G3 (GOES 14)        
1 35491U 09033A   26200.28816167 -.00000365  00000+0  00000+0 0  9999
2 35491   1.7706  82.6459 0002084  38.9589  41.7132  1.00096361  6915
FM-5                    
1 35493U 09034A   26199.57753144 -.00000206  00000+0  00000+0 0  9990
2 35493   0.0392 242.8296 0001121 120.9161  54.3676  1.00266302 46953
TERRESTAR-1             
1 35496U 09035A   26200.17058655 -.00000064  00000+0  00000+0 0  9990
2 35496   5.1975  48.7645 0002481  63.6244 135.0007  1.00273121 62450
ASIASAT 5               
1 35696U 09042A   26200.03586459 -.00000313  00000+0  00000+0 0  9990
2 35696   0.0074  21.3241 0001424  69.8106 319.1368  1.00272202 62023
JCSAT-12 (JCSAT-RA)     
1 35755U 09044A   26200.29006834 -.00000333  00000+0  00000+0 0  9992
2 35755   0.0462 261.6840 0000977 285.1233 346.7439  1.00270652 61931
OPTUS D3                
1 35756U 09044B   26200.32805748 -.00000151  00000+0  00000+0 0  9996
2 35756   0.8943 268.1674 0003335 213.7539  89.4223  1.00270453 61883
NIMIQ 5                 
1 35873U 09050A   26200.23420262 -.00000262  00000+0  00000+0 0  9990
2 35873   0.0384 257.2691 0002820 212.8399 198.5251  1.00272429 61668
AMAZONAS 2              
1 35942U 09054A   26200.23466919 -.00000265  00000+0  00000+0 0  9993
2 35942   1.8967  82.6401 0003331  30.9652 195.9005  1.00273113 61501
COMSATBW-1              
1 35943U 09054B   26200.18219453  .00000020  00000+0  00000+0 0  9995
2 35943   0.0648 160.1703 0002815 317.6079 307.7856  1.00271279 61621
NSS-12                  
1 36032U 09058A   26200.20389378  .00000066  00000+0  00000+0 0  9996
2 36032   0.0818 269.3323 0004909 171.9326 346.1155  1.00272406 61231
THOR 6                  
1 36033U 09058B   26200.26372156 -.00000015  00000+0  00000+0 0  9994
2 36033   0.0125 105.8955 0001750  14.7735 270.4710  1.00272155 61324
INTELSAT 14 (IS-14)     
1 36097U 09064A   26200.25496819 -.00000279  00000+0  00000+0 0  9995
2 36097   0.0153  44.1292 0002496  77.0102 222.6868  1.00272379 60928
EUTELSAT 36B            
1 36101U 09065A   26200.27368828  .00000107  00000+0  00000+0 0  9991
2 36101   0.5698  81.3560 0005651  33.2939 331.4243  1.00270173 61031
INTELSAT 15 (IS-15)     
1 36106U 09067A   26200.12316785 -.00000191  00000+0  00000+0 0  9991
2 36106   0.0175  48.4187 0002325  68.1988 309.7791  1.00272730 41547
WGS F3 (USA 211)        
1 36108U 09068A   26200.23818140  .00000059  00000+0  00000+0 0  9990
2 36108   0.2968  85.6933 0000514  75.0525  92.0234  1.00271050 46919
DIRECTV 12              
1 36131U 09075A   26200.17223323 -.00000109  00000+0  00000+0 0  9997
2 36131   0.0319 195.8259 0000219  15.5870  44.8274  1.00272152 46870
BEIDOU-2 G1             
1 36287U 10001A   26199.62717154 -.00000289  00000+0  00000+0 0  9996
2 36287   4.3658  60.3033 0001872 288.7280 313.6339  1.00270788 60481
SDO                     
1 36395U 10005A   26200.24111708 -.00000094  00000+0  00000+0 0  9998
2 36395  34.7163  85.8540 0001721  43.5863 152.2121  1.00277469 60389
INTELSAT 16 (IS-16)     
1 36397U 10006A   26200.24881483 -.00000250  00000+0  00000+0 0  9999
2 36397   0.0202  65.3469 0002422  71.0433 174.0100  1.00271684 59977
EWS-G2 (GOES 15)        
1 36411U 10008A   26200.18219453  .00000017  00000+0  00000+0 0  9993
2 36411   1.3638  82.4174 0005382  53.7982 289.6154  1.00269378 59955
ECHOSTAR 14             
1 36499U 10010A   26200.28869350 -.00000005  00000+0  00000+0 0  9998
2 36499   0.0173 309.1572 0002009 152.7693 180.1656  1.00272569 46879
SES-1                   
1 36516U 10016A   26200.28421990 -.00000119  00000+0  00000+0 0  9994
2 36516   0.0538 270.4989 0002545 201.7066 186.1830  1.00272010 59358
ASTRA 3B                
1 36581U 10021A   26200.26857492  .00000131  00000+0  00000+0 0  9993
2 36581   1.5493  83.1587 0004301  25.3861 308.6908  1.00272016 59188
COMSATBW-2              
1 36582U 10021B   26200.26649491  .00000083  00000+0  00000+0 0  9998
2 36582   0.0415 164.1714 0002271 319.9254 282.1110  1.00268927 59278
BEIDOU-2 G3             
1 36590U 10024A   26198.71133366 -.00000144  00000+0  00000+0 0  9994
2 36590   4.5863  61.3773 0006935 359.5938 210.1623  1.00268200 59078
