OBJECT_NAME,OBJECT_ID,EPOCH,MEAN_MOTION,ECCENTRICITY,INCLINATION,RA_OF_ASC_NODE,ARG_OF_PERICENTER,MEAN_ANOMALY,EPHEMERIS_TYPE,CLASSIFICATION_TYPE,NORAD_CAT_ID,ELEMENT_SET_NO,REV_AT_EPOCH,BSTAR,MEAN_MOTION_DOT,MEAN_MOTION_DDOT
EUTELSAT HOTBIRD 13C,2008-065A,2026-07-19T06:05:39.394752,1.00269656,.00035399,3.0309,78.8115,40.2316,219.0842,0,U,33459,999,4766,0,-.289E-5,0
EXPRESS-AM44,2009-007A,2026-07-19T06:16:53.318208,1.00271226,.00036526,3.5443,78.0047,32.0989,270.1383,0,U,33595,999,5260,0,-.96E-6,0
NSS-9,2009-008A,2026-07-19T06:52:55.426368,1.00273814,.00020253,1.3429,82.3431,23.9676,117.0736,0,U,33749,999,6384,0,.66E-6,0
TELSTAR 11N,2009-009A,2026-07-19T06:09:16.548192,1.00272237,.00023523,0.0119,11.7328,97.0691,243.0064,0,U,34111,999,4656,0,-.256E-5,0
WGS F2 (USA 204),2009-017A,2026-07-19T04:53:43.910880,1.00272453,.00002334,0.0165,59.4592,98.7500,269.7092,0,U,34713,999,4593,0,.63E-6,0
SES-7 (PROTOSTAR 2),2009-027A,2026-07-19T06:50:42.575136,1.00270091,.00002834,0.0181,60.5280,157.9431,289.5118,0,U,34941,999,6295,0,-.35E-5,0
MEASAT-3A,2009-032A,2026-07-19T05:23:03.598080,1.00272236,.00028123,0.0252,346.2417,121.4398,70.0888,0,U,35362,999,835,0,-.116E-5,0
EWS-G3 (GOES 14),2009-033A,2026-07-19T06:54:57.168288,1.00096361,.00020842,1.7706,82.6459,38.9589,41.7132,0,U,35491,999,691,0,-.365E-5,0
FM-5,2009-034A,2026-07-18T13:51:38.716416,1.00266302,.00011216,0.0392,242.8296,120.9161,54.3676,0,U,35493,999,4695,0,-.206E-5,0
TERRESTAR-1,2009-035A,2026-07-19T04:05:38.677920,1.00273121,.00024818,5.1975,48.7645,63.6244,135.0007,0,U,35496,999,6245,0,-.64E-6,0
ASIASAT 5,2009-042A,2026-07-19T00:51:38.700576,1.00272202,.00014248,0.0074,21.3241,69.8106,319.1368,0,U,35696,999,6202,0,-.313E-5,0
JCSAT-12 (JCSAT-RA),2009-044A,2026-07-19T06:57:41.904576,1.00270652,.00009775,0.0462,261.6840,285.1233,346.7439,0,U,35755,999,6193,0,-.333E-5,0
OPTUS D3,2009-044B,2026-07-19T07:52:24.166272,1.00270453,.00033355,0.8943,268.1674,213.7539,89.4223,0,U,35756,999,6188,0,-.151E-5,0
NIMIQ 5,2009-050A,2026-07-19T05:37:15.106368,1.00272429,.00028204,0.0384,257.2691,212.8399,198.5251,0,U,35873,999,6166,0,-.262E-5,0
AMAZONAS 2,2009-054A,2026-07-19T05:37:55.418016,1.00273113,.00033315,1.8967,82.6401,30.9652,195.9005,0,U,35942,999,6150,0,-.265E-5,0
COMSATBW-1,2009-054B,2026-07-19T04:22:21.607392,1.00271279,.00028158,0.0648,160.1703,317.6079,307.7856,0,U,35943,999,6162,0,.2E-6,0
NSS-12,2009-058A,2026-07-19T04:53:36.422592,1.00272406,.00049092,0.0818,269.3323,171.9326,346.1155,0,U,36032,999,6123,0,.66E-6,0
THOR 6,2009-058B,2026-07-19T06:19:45.542784,1.00272155,.00017507,0.0125,105.8955,14.7735,270.4710,0,U,36033,999,6132,0,-.15E-6,0
INTELSAT 14 (IS-14),2009-064A,2026-07-19T06:07:09.251616,1.00272379,.00024968,0.0153,44.1292,77.0102,222.6868,0,U,36097,999,6092,0,-.279E-5,0
EUTELSAT 36B,2009-065A,2026-07-19T06:34:06.667392,1.00270173,.00056513,0.5698,81.3560,33.2939,331.4243,0,U,36101,999,6103,0,.107E-5,0
INTELSAT 15 (IS-15),2009-067A,2026-07-19T02:57:21.702240,1.00272730,.00023251,0.0175,48.4187,68.1988,309.7791,0,U,36106,999,4154,0,-.191E-5,0
WGS F3 (USA 211),2009-068A,2026-07-19T05:42:58.872960,1.00271050,.00005146,0.2968,85.6933,75.0525,92.0234,0,U,36108,999,4691,0,.59E-6,0
DIRECTV 12,2009-075A,2026-07-19T04:08:00.951072,1.00272152,.00002195,0.0319,195.8259,15.5870,44.8274,0,U,36131,999,4687,0,-.109E-5,0
BEIDOU-2 G1,2010-001A,2026-07-18T15:03:07.621056,1.00270788,.00018723,4.3658,60.3033,288.7280,313.6339,0,U,36287,999,6048,0,-.289E-5,0
SDO,2010-005A,2026-07-19T05:47:12.515712,1.00277469,.00017212,34.7163,85.8540,43.5863,152.2121,0,U,36395,999,6038,0,-.94E-6,0
INTELSAT 16 (IS-16),2010-006A,2026-07-19T05:58:17.601312,1.00271684,.00024224,0.0202,65.3469,71.0433,174.0100,0,U,36397,999,5997,0,-.25E-5,0
EWS-G2 (GOES 15),2010-008A,2026-07-19T04:22:21.607392,1.00269378,.0005382,1.3638,82.4174,53.7982,289.6154,0,U,36411,999,5995,0,.17E-6,0
ECHOSTAR 14,2010-010A,2026-07-19T06:55:43.118400,1.00272569,.00020093,0.0173,309.1572,152.7693,180.1656,0,U,36499,999,4687,0,-.5E-7,0
SES-1,2010-016A,2026-07-19T06:49:16.599360,1.00272010,.00025458,0.0538,270.4989,201.7066,186.1830,0,U,36516,999,5935,0,-.119E-5,0
ASTRA 3B,2010-021A,2026-07-19T06:26:44.873088,1.00272016,.00043012,1.5493,83.1587,25.3861,308.6908,0,U,36581,999,5918,0,.131E-5,0
COMSATBW-2,2010-021B,2026-07-19T06:23:45.160224,1.00268927,.00022715,0.0415,164.1714,319.9254,282.1110,0,U,36582,999,5927,0,.83E-6,0
BEIDOU-2 G3,2010-024A,2026-07-17T17:04:19.228224,1.00268200,.00069352,4.5863,61.3773,359.5938,210.1623,0,U,36590,999,5907,0,-.144E-5,0
